No errors
Max results hit (1000): not all possible results returned; 
96 ms
data source=metars
1000 results
raw_text,station_id,observation_time,latitude,longitude,temp_c,dewpoint_c,wind_dir_degrees,wind_speed_kt,wind_gust_kt,visibility_statute_mi,altim_in_hg,sea_level_pressure_mb,corrected,auto,auto_station,maintenance_indicator_on,no_signal,lightning_sensor_off,freezing_rain_sensor_off,present_weather_sensor_off,wx_string,sky_cover,cloud_base_ft_agl,sky_cover,cloud_base_ft_agl,sky_cover,cloud_base_ft_agl,sky_cover,cloud_base_ft_agl,flight_category,three_hr_pressure_tendency_mb,maxT_c,minT_c,maxT24hr_c,minT24hr_c,precip_in,pcp3hr_in,pcp6hr_in,pcp24hr_in,snow_in,vert_vis_ft,metar_type,elevation_m
KBLI 270053Z 23004KT 10SM CLR 13/00 A3004 RMK AO2 SLP180 T01330000,KBLI,2019-03-27T00:53:00Z,48.8,-122.53,13.3,0.0,230,4,,10.0,30.041338,1018.0,,,TRUE,,,,,,,CLR,,,,,,,,VFR,,,,,,,,,,,,METAR,50.0 
KAIK 270055Z AUTO 05008KT 10SM SCT080 11/05 A3022 RMK AO2,KAIK,2019-03-27T00:55:00Z,33.65,-81.68,11.0,5.0,50,8,,10.0,30.221457,,,TRUE,TRUE,,,,,,,SCT,8000,,,,,,,VFR,,,,,,,,,,,,METAR,161.0
KALM 270055Z AUTO 17013G19KT 10SM CLR 23/07 A3006 RMK AO2,KALM,2019-03-27T00:55:00Z,32.82,-105.97,23.0,7.0,170,13,19,10.0,30.059055,,,TRUE,TRUE,,,,,,,CLR,,,,,,,,VFR,,,,,,,,,,,,METAR,1279.0
KCKM 270055Z AUTO 36007KT 10SM 10/02 A3031 RMK A01,KCKM,2019-03-27T00:55:00Z,34.3,-90.52,10.0,2.0,360,7,,10.0,30.31004,,,TRUE,TRUE,,,,,,,,,,,,,,,,,,,,,,,,,,,METAR,53.0
KLSF 270055Z AUTO 29005KT 10SM %2BRA BKN043 OVC055 14/10 A3012 RMK AO2 DZB55 SLP205,KLSF,2019-03-27T00:55:00Z,32.32,-83.97,14.0,10.0,290,5,,10.0,30.121063,1020.5,,TRUE,TRUE,,,,,,%2BRA,BKN,4300,OVC,5500,,,,,VFR,,,,,,,,,,,,SPECI,71.0
KSPA 270055Z AUTO 02007KT 10SM OVC060 11/05 A3022 RMK AO2,KSPA,2019-03-27T00:55:00Z,34.92,-81.93,11.0,5.0,20,7,,10.0,30.221457,,,TRUE,TRUE,,,,,,,OVC,6000,,,,,,,VFR,,,,,,,,,,,,SPECI,303.0
KSIK 270055Z AUTO 36005KT 10SM CLR 08/M01 A3035 RMK AO2,KSIK,2019-03-27T00:55:00Z,36.9,-89.57,8.0,-1.0,360,5,,10.0,30.351377,,,TRUE,TRUE,,,,,,,CLR,,,,,,,,VFR,,,,,,,,,,,,SPECI,96.0
KLQK 270055Z AUTO 08005KT 10SM OVC042 11/06 A3020 RMK AO2 T01080062,KLQK,2019-03-27T00:55:00Z,34.82,-82.7,10.8,6.2,80,5,,10.0,30.200787,,,TRUE,TRUE,,,,,,,OVC,4200,,,,,,,VFR,,,,,,,,,,,,SPECI,309.0
KINF 270055Z AUTO 00000KT 10SM CLR 17/15 A3003 RMK AO2,KINF,2019-03-27T00:55:00Z,28.8,-82.32,17.0,15.0,0,0,,10.0,30.029528,,,TRUE,TRUE,,,,,,,CLR,,,,,,,,VFR,,,,,,,,,,,,SPECI,15.0
KIFA 270055Z AUTO 14008KT 10SM OVC060 09/03 A3024 RMK AO2 T00910033,KIFA,2019-03-27T00:55:00Z,42.47,-93.27,9.1,3.3,140,8,,10.0,30.239174,,,TRUE,TRUE,,,,,,,OVC,6000,,,,,,,VFR,,,,,,,,,,,,METAR,347.0
KHXD 270055Z AUTO 04010G20KT 10SM BKN027 OVC032 13/08 A3017 RMK AO2,KHXD,2019-03-27T00:55:00Z,32.22,-80.7,13.0,8.0,40,10,20,10.0,30.171259,,,TRUE,TRUE,,,,,,,BKN,2700,OVC,3200,,,,,MVFR,,,,,,,,,,,,METAR,6.0
KICL 270055Z AUTO 16007KT 10SM CLR 12/05 A3023 RMK AO2,KICL,2019-03-27T00:55:00Z,40.72,-95.02,12.0,5.0,160,7,,10.0,30.230314,,,TRUE,TRUE,,,,,,,CLR,,,,,,,,VFR,,,,,,,,,,,,METAR,303.0
KBKN 270055Z AUTO 14007KT 10SM CLR 16/08 A3026 RMK AO2,KBKN,2019-03-27T00:55:00Z,36.75,-97.35,16.0,8.0,140,7,,10.0,30.259842,,,TRUE,TRUE,,,,,,,CLR,,,,,,,,VFR,,,,,,,,,,,,METAR,314.0
KANQ 270055Z AUTO 00000KT 10SM CLR 03/M06 A3037 RMK AO2,KANQ,2019-03-27T00:55:00Z,41.63,-85.08,3.0,-6.0,0,0,,10.0,30.369095,,,TRUE,TRUE,,,,,,,CLR,,,,,,,,VFR,,,,,,,,,,,,METAR,303.0
K2C8 270055Z AUTO 18012KT 4SM BR OVC008 01/00 A2994 RMK AO2,K2C8,2019-03-27T00:55:00Z,48.78,-97.63,1.0,0.0,180,12,,4.0,29.940945,,,TRUE,TRUE,,,,,,BR,OVC,800,,,,,,,IFR,,,,,,,,,,,,METAR,272.0
KC35 270055Z AUTO 19005KT 10SM CLR 04/M07 A3031 RMK AO2 T00441073,KC35,2019-03-27T00:55:00Z,43.53,-89.98,4.4,-7.3,190,5,,10.0,30.31004,,,TRUE,TRUE,,,,,,,CLR,,,,,,,,VFR,,,,,,,,,,,,METAR,276.0
KGLY 270055Z AUTO 15003KT 10SM CLR 11/04 A3030 RMK AO2,KGLY,2019-03-27T00:55:00Z,38.35,-93.68,11.0,4.0,150,3,,10.0,30.301182,,,TRUE,TRUE,,,,,,,CLR,,,,,,,,VFR,,,,,,,,,,,,METAR,251.0
KIDI 270055Z AUTO 00000KT 10SM CLR 03/M13 A3036 RMK A01,KIDI,2019-03-27T00:55:00Z,40.62,-79.08,3.0,-13.0,0,0,,10.0,30.360237,,,TRUE,TRUE,,,,,,,CLR,,,,,,,,VFR,,,,,,,,,,,,METAR,429.0
KEOK 270055Z AUTO 00000KT 10SM CLR 08/M07 A3034 RMK AO2,KEOK,2019-03-27T00:55:00Z,40.47,-91.42,8.0,-7.0,0,0,,10.0,30.339567,,,TRUE,TRUE,,,,,,,CLR,,,,,,,,VFR,,,,,,,,,,,,METAR,205.0
KZPH 270055Z AUTO 30006KT 10SM CLR 20/15 A3003 RMK AO2 T01970146 PWINO,KZPH,2019-03-27T00:55:00Z,28.23,-82.15,19.7,14.6,300,6,,10.0,30.029528,,,TRUE,TRUE,,,,,TRUE,,CLR,,,,,,,,VFR,,,,,,,,,,,,METAR,26.0
KPSO 270055Z AUTO 00000KT 10SM SCT110 12/M07 A3021 RMK AO2 T01161070,KPSO,2019-03-27T00:55:00Z,37.28,-107.05,11.6,-7.0,0,0,,10.0,30.209646,,,TRUE,TRUE,,,,,,,SCT,11000,,,,,,,VFR,,,,,,,,,,,,METAR,2334.0
KGGE 270055Z AUTO 01003KT 10SM OVC048 12/07 A3021 RMK AO2,KGGE,2019-03-27T00:55:00Z,33.32,-79.32,12.0,7.0,10,3,,10.0,30.209646,,,TRUE,TRUE,,,,,,,OVC,4800,,,,,,,VFR,,,,,,,,,,,,METAR,12.0
KSDC 270055Z AUTO 00000KT 10SM CLR M02/M12 A3043 RMK AO2,KSDC,2019-03-27T00:55:00Z,43.23,-77.12,-2.0,-12.0,0,0,,10.0,30.431103,,,TRUE,TRUE,,,,,,,CLR,,,,,,,,VFR,,,,,,,,,,,,METAR,129.0
KVDF 270055Z AUTO 00000KT 10SM CLR 20/15 A3003 RMK AO2,KVDF,2019-03-27T00:55:00Z,28.02,-82.33,20.0,15.0,0,0,,10.0,30.029528,,,TRUE,TRUE,,,,,,,CLR,,,,,,,,VFR,,,,,,,,,,,,METAR,7.0
KVNW 270055Z AUTO 11007KT 10SM CLR 03/M07 A3039 RMK AO2,KVNW,2019-03-27T00:55:00Z,40.87,-84.62,3.0,-7.0,110,7,,10.0,30.389763,,,TRUE,TRUE,,,,,,,CLR,,,,,,,,VFR,,,,,,,,,,,,METAR,239.0
KCBG 270055Z AUTO 17005KT 10SM BKN044 OVC060 08/00 A3018 RMK AO2,KCBG,2019-03-27T00:55:00Z,45.57,-93.27,8.0,0.0,170,5,,10.0,30.180119,,,TRUE,TRUE,,,,,,,BKN,4400,OVC,6000,,,,,VFR,,,,,,,,,,,,METAR,287.0
KCAD 270055Z AUTO 00000KT 10SM CLR 02/M11 A3033 RMK AO2 T00231113,KCAD,2019-03-27T00:55:00Z,44.27,-85.42,2.3,-11.3,0,0,,10.0,30.33071,,,TRUE,TRUE,,,,,,,CLR,,,,,,,,VFR,,,,,,,,,,,,METAR,398.0
KCDA 270055Z AUTO 00000KT 10SM CLR M05/M16 A3033 RMK AO2 T10541161,KCDA,2019-03-27T00:55:00Z,44.57,-72.02,-5.4,-16.1,0,0,,10.0,30.33071,,,TRUE,TRUE,,,,,,,CLR,,,,,,,,VFR,,,,,,,,,,,,METAR,363.0
KCFS 270055Z AUTO 00000KT 10SM CLR M01/M10 A3040 RMK AO2 T10121098,KCFS,2019-03-27T00:55:00Z,43.47,-83.45,-1.2,-9.8,0,0,,10.0,30.398623,,,TRUE,TRUE,,,,,,,CLR,,,,,,,,VFR,,,,,,,,,,,,METAR,214.0
KDLZ 270055Z AUTO 36008KT 10SM SCT110 02/M07 A3037 RMK AO2,KDLZ,2019-03-27T00:55:00Z,40.28,-83.12,2.0,-7.0,360,8,,10.0,30.369095,,,TRUE,TRUE,,,,,,,SCT,11000,,,,,,,VFR,,,,,,,,,,,,METAR,289.0
KDYT 270055Z AUTO 10SM OVC060 06/M02 A3019 RMK AO2,KDYT,2019-03-27T00:55:00Z,46.72,-92.03,6.0,-2.0,,,,10.0,30.188976,,,TRUE,TRUE,,,,,,,OVC,6000,,,,,,,VFR,,,,,,,,,,,,METAR,186.0
K22N 270055Z AUTO 34003KT 10SM CLR 03/M16 A3036 RMK AO2,K22N,2019-03-27T00:55:00Z,40.8,-75.77,3.0,-16.0,340,3,,10.0,30.360237,,,TRUE,TRUE,,,,,,,CLR,,,,,,,,VFR,,,,,,,,,,,,METAR,163.0
K1P1 270055Z AUTO 00000KT 10SM CLR M01/M17 A3033 RMK AO2 T10091175,K1P1,2019-03-27T00:55:00Z,43.78,-71.75,-0.9,-17.5,0,0,,10.0,30.33071,,,TRUE,TRUE,,,,,,,CLR,,,,,,,,VFR,,,,,,,,,,,,METAR,154.0
KBAC 270055Z AUTO 15007KT 5SM BR OVC009 01/01 A3000 RMK AO2,KBAC,2019-03-27T00:55:00Z,46.93,-98.02,1.0,1.0,150,7,,5.0,30.0,,,TRUE,TRUE,,,,,,BR,OVC,900,,,,,,,IFR,,,,,,,,,,,,METAR,427.0
KSPF 270055Z AUTO 00000KT 10SM CLR 10/00 A2986 RMK AO2,KSPF,2019-03-27T00:55:00Z,44.47,-103.77,10.0,0.0,0,0,,10.0,29.861221,,,TRUE,TRUE,,,,,,,CLR,,,,,,,,VFR,,,,,,,,,,,,METAR,1188.0
KIKV 270055Z AUTO 19006KT 10SM SCT060 OVC070 11/03 A3027 RMK AO2,KIKV,2019-03-27T00:55:00Z,41.68,-93.57,11.0,3.0,190,6,,10.0,30.268702,,,TRUE,TRUE,,,,,,,SCT,6000,OVC,7000,,,,,VFR,,,,,,,,,,,,METAR,275.0
KGWR 270055Z AUTO 10005KT 3SM BR 01/01 A3000 RMK A01,KGWR,2019-03-27T00:55:00Z,46.22,-97.65,1.0,1.0,100,5,,3.0,30.0,,,TRUE,TRUE,,,,,,BR,,,,,,,,,,,,,,,,,,,,,METAR,386.0
KFRR 270055Z AUTO 00000KT 10SM CLR 04/M09 A3033 RMK AO1,KFRR,2019-03-27T00:55:00Z,38.92,-78.25,4.0,-9.0,0,0,,10.0,30.33071,,,TRUE,TRUE,,,,,,,CLR,,,,,,,,VFR,,,,,,,,,,,,METAR,216.0
KHCR 270055Z AUTO 19004KT 10SM CLR 14/M06 A2998 RMK AO2,KHCR,2019-03-27T00:55:00Z,40.48,-111.43,14.0,-6.0,190,4,,10.0,29.97933,,,TRUE,TRUE,,,,,,,CLR,,,,,,,,VFR,,,,,,,,,,,,METAR,1706.0
KRSN 270055Z AUTO 00000KT 10SM CLR 15/03 A3032 RMK AO2 T01520029,KRSN,2019-03-27T00:55:00Z,32.52,-92.58,15.2,2.9,0,0,,10.0,30.318897,,,TRUE,TRUE,,,,,,,CLR,,,,,,,,VFR,,,,,,,,,,,,METAR,95.0
KPTB 270055Z AUTO 00000KT 10SM CLR 02/M06 A3032 RMK AO2 T00211059,KPTB,2019-03-27T00:55:00Z,37.17,-77.52,2.1,-5.9,0,0,,10.0,30.318897,,,TRUE,TRUE,,,,,,,CLR,,,,,,,,VFR,,,,,,,,,,,,METAR,59.0
KHSB 270055Z AUTO 01004KT 10SM CLR 06/M02 A3037 RMK AO2 T00581018,KHSB,2019-03-27T00:55:00Z,37.82,-88.55,5.8,-1.8,10,4,,10.0,30.369095,,,TRUE,TRUE,,,,,,,CLR,,,,,,,,VFR,,,,,,,,,,,,METAR,121.0
KSTF 270055Z AUTO 34004KT 10SM BKN060 13/02 A3025 RMK AO2 PWINO,KSTF,2019-03-27T00:55:00Z,33.43,-88.85,13.0,2.0,340,4,,10.0,30.250984,,,TRUE,TRUE,,,,,TRUE,,BKN,6000,,,,,,,VFR,,,,,,,,,,,,METAR,102.0
KBKB 270054Z AUTO 00000KT 10SM CLR 14/07 A3023 RMK AO2 SLP266 T01440067 ,KBKB,2019-03-27T00:54:00Z,31.0,-92.92,14.4,6.7,0,0,,10.0,30.230314,1026.6,,TRUE,TRUE,,,,,,,CLR,,,,,,,,VFR,,,,,,,,,,,,METAR,94.0
KLEX 270054Z 02007KT 10SM CLR 04/M06 A3033 RMK AO2 SLP276 T00441061,KLEX,2019-03-27T00:54:00Z,38.03,-84.6,4.4,-6.1,20,7,,10.0,30.33071,1027.6,,,TRUE,,,,,,,CLR,,,,,,,,VFR,,,,,,,,,,,,METAR,300.0
KABR 270053Z AUTO 10005KT 6SM BR CLR 03/02 A2997 RMK AO2 SLP161 T00330017,KABR,2019-03-27T00:53:00Z,45.45,-98.42,3.3,1.7,100,5,,6.0,29.970472,1016.1,,TRUE,TRUE,,,,,,BR,CLR,,,,,,,,VFR,,,,,,,,,,,,METAR,397.0
KCSV 270053Z AUTO 36007KT 10SM CLR 07/M04 A3024 RMK AO2 SLP244 T00721044,KCSV,2019-03-27T00:53:00Z,35.95,-85.08,7.2,-4.4,360,7,,10.0,30.239174,1024.4,,TRUE,TRUE,,,,,,,CLR,,,,,,,,VFR,,,,,,,,,,,,METAR,570.0
KBFF 270053Z AUTO 14004KT 10SM CLR 17/00 A2995 RMK AO2 SLP135 T01670000,KBFF,2019-03-27T00:53:00Z,41.87,-103.58,16.7,0.0,140,4,,10.0,29.949802,1013.5,,TRUE,TRUE,,,,,,,CLR,,,,,,,,VFR,,,,,,,,,,,,METAR,1203.0
KDHN 270053Z 33007KT 10SM CLR 13/07 A3016 RMK AO2 SLP210 T01280072,KDHN,2019-03-27T00:53:00Z,31.32,-85.45,12.8,7.2,330,7,,10.0,30.159449,1021.0,,,TRUE,,,,,,,CLR,,,,,,,,VFR,,,,,,,,,,,,METAR,113.0
KDGW 270053Z AUTO 22008KT 10SM CLR 13/M05 A2995 RMK AO2 SLP137 T01331050,KDGW,2019-03-27T00:53:00Z,42.8,-105.38,13.3,-5.0,220,8,,10.0,29.949802,1013.7,,TRUE,TRUE,,,,,,,CLR,,,,,,,,VFR,,,,,,,,,,,,METAR,1499.0
KDFW 270053Z 09005KT 10SM FEW300 17/06 A3024 RMK AO2 SLP238 T01720061,KDFW,2019-03-27T00:53:00Z,32.0,-97.02,17.2,6.1,90,5,,10.0,30.239174,1023.8,,,TRUE,,,,,,,FEW,30000,,,,,,,VFR,,,,,,,,,,,,METAR,174.0
KMGM 270053Z 35004KT 10SM OVC046 13/07 A3017 RMK AO2 SLP217 T01330067,KMGM,2019-03-27T00:53:00Z,32.3,-86.4,13.3,6.7,350,4,,10.0,30.171259,1021.7,,,TRUE,,,,,,,OVC,4600,,,,,,,VFR,,,,,,,,,,,,METAR,63.0
KHVN 270053Z 35007KT 10SM CLR 06/M15 A3033 RMK AO2 SLP269 T00561150,KHVN,2019-03-27T00:53:00Z,41.27,-72.87,5.6,-15.0,350,7,,10.0,30.33071,1026.9,,,TRUE,,,,,,,CLR,,,,,,,,VFR,,,,,,,,,,,,METAR,4.0
KMLC 270053Z AUTO 00000KT 10SM FEW070 FEW100 16/06 A3028 RMK AO2 SLP253 T01560056,KMLC,2019-03-27T00:53:00Z,34.88,-95.78,15.6,5.6,0,0,,10.0,30.280512,1025.3,,TRUE,TRUE,,,,,,,FEW,7000,FEW,10000,,,,,VFR,,,,,,,,,,,,METAR,232.0
KPIH 270053Z 00000KT 10SM CLR 14/M01 A2996 RMK AO2 SLP142 T01441006,KPIH,2019-03-27T00:53:00Z,42.92,-112.57,14.4,-0.6,0,0,,10.0,29.958662,1014.2,,,TRUE,,,,,,,CLR,,,,,,,,VFR,,,,,,,,,,,,METAR,1359.0
KPGA 270053Z AUTO 10004KT 10SM CLR 19/M04 A2999 RMK AO2 SLP120 T01941039 TSNO,KPGA,2019-03-27T00:53:00Z,36.92,-111.45,19.4,-3.9,100,4,,10.0,29.991142,1012.0,,TRUE,TRUE,,,TRUE,,,,CLR,,,,,,,,VFR,,,,,,,,,,,,METAR,1307.0
KPEO 270053Z AUTO 00000KT 10SM CLR M02/M14 A3041 RMK AO2 SLP310 T10171139,KPEO,2019-03-27T00:53:00Z,42.65,-77.05,-1.7,-13.9,0,0,,10.0,30.410433,1031.0,,TRUE,TRUE,,,,,,,CLR,,,,,,,,VFR,,,,,,,,,,,,METAR,256.0
KPDX 270053Z 29007KT 10SM FEW045 BKN250 14/02 A2996 RMK AO2 SLP145 T01440022,KPDX,2019-03-27T00:53:00Z,45.6,-122.62,14.4,2.2,290,7,,10.0,29.958662,1014.5,,,TRUE,,,,,,,FEW,4500,BKN,25000,,,,,VFR,,,,,,,,,,,,METAR,7.0
KPDT 270053Z 31004KT 10SM CLR 12/01 A2997 RMK AO2 SLP147 T01220011,KPDT,2019-03-27T00:53:00Z,45.7,-118.83,12.2,1.1,310,4,,10.0,29.970472,1014.7,,,TRUE,,,,,,,CLR,,,,,,,,VFR,,,,,,,,,,,,METAR,462.0
KLAX 270053Z 27012KT 10SM FEW150 FEW200 SCT250 16/11 A2996 RMK AO2 SLP144 T01610106,KLAX,2019-03-27T00:53:00Z,33.93,-118.38,16.1,10.6,270,12,,10.0,29.958662,1014.4,,,TRUE,,,,,,,FEW,15000,FEW,20000,SCT,25000,,,VFR,,,,,,,,,,,,METAR,46.0
KJKL 270053Z AUTO 03005KT 10SM CLR 06/M10 A3029 RMK AO2 SLP265 T00611100,KJKL,2019-03-27T00:53:00Z,37.6,-83.32,6.1,-10.0,30,5,,10.0,30.28937,1026.5,,TRUE,TRUE,,,,,,,CLR,,,,,,,,VFR,,,,,,,,,,,,METAR,416.0
KJER 270053Z AUTO 32005KT 10SM CLR 15/M02 A2993 RMK AO2 SLP129 T01501017,KJER,2019-03-27T00:53:00Z,42.72,-114.45,15.0,-1.7,320,5,,10.0,29.929134,1012.9,,TRUE,TRUE,,,,,,,CLR,,,,,,,,VFR,,,,,,,,,,,,METAR,1222.0
KPRC 270053Z 22008KT 10SM CLR 19/M07 A3007 RMK AO2 SLP138 T01891072,KPRC,2019-03-27T00:53:00Z,34.65,-112.42,18.9,-7.2,220,8,,10.0,30.070866,1013.8,,,TRUE,,,,,,,CLR,,,,,,,,VFR,,,,,,,,,,,,METAR,1524.0
KGGW 270053Z AUTO 02007KT 10SM SN 11/06 A2976 RMK AO2 SLP091 T01110056,KGGW,2019-03-27T00:53:00Z,48.22,-106.62,11.1,5.6,20,7,,10.0,29.760826,1009.1,,TRUE,TRUE,,,,,,,SN,CLR,,,,,,,VFR,,,,,,,,,,,,METAR,694.0
KFYV 270053Z 00000KT 10SM CLR 10/04 A3029 RMK AO2 SLP260 T01000039,KFYV,2019-03-27T00:53:00Z,36.02,-94.17,10.0,3.9,0,0,,10.0,30.28937,1026.0,,,TRUE,,,,,,,CLR,,,,,,,,VFR,,,,,,,,,,,,METAR,379.0
KGCC 270053Z AUTO 00000KT 10SM CLR 09/02 A2986 RMK AO2 SLP112 T00940017,KGCC,2019-03-27T00:53:00Z,44.33,-105.55,9.4,1.7,0,0,,10.0,29.861221,1011.2,,TRUE,TRUE,,,,,,,CLR,,,,,,,,VFR,,,,,,,,,,,,METAR,1320.0
KGEY 270053Z AUTO 15007KT 10SM CLR 18/M06 A2981 RMK AO2 SLP094 T01781061,KGEY,2019-03-27T00:53:00Z,44.52,-108.08,17.8,-6.1,150,7,,10.0,29.811024,1009.4,,TRUE,TRUE,,,,,,,CLR,,,,,,,,VFR,,,,,,,,,,,,METAR,1191.0
KGEZ 270053Z AUTO 05006KT 10SM CLR 04/M04 A3036 RMK AO2 SLP290 T00391044,KGEZ,2019-03-27T00:53:00Z,39.58,-85.8,3.9,-4.4,50,6,,10.0,30.360237,1029.0,,TRUE,TRUE,,,,,,,CLR,,,,,,,,VFR,,,,,,,,,,,,METAR,245.0
KGFK 270053Z 18014KT 10SM OVC009 01/M01 A3000 RMK AO2 SLP171 T00111011,KGFK,2019-03-27T00:53:00Z,47.95,-97.18,1.1,-1.1,180,14,,10.0,30.0,1017.1,,,TRUE,,,,,,,OVC,900,,,,,,,IFR,,,,,,,,,,,,METAR,258.0
KGGG 270053Z 06005KT 10SM CLR 17/07 A3026 RMK AO2 SLP247 T01670067,KGGG,2019-03-27T00:53:00Z,32.38,-94.72,16.7,6.7,60,5,,10.0,30.259842,1024.7,,,TRUE,,,,,,,CLR,,,,,,,,VFR,,,,,,,,,,,,METAR,107.0
KCDC 270053Z AUTO 21013KT 10SM CLR 13/M07 A3001 RMK AO2 SLP139 T01331072,KCDC,2019-03-27T00:53:00Z,37.7,-113.1,13.3,-7.2,210,13,,10.0,30.008858,1013.9,,TRUE,TRUE,,,,,,,CLR,,,,,,,,VFR,,,,,,,,,,,,METAR,1714.0
KUTS 270053Z AUTO 00000KT 10SM CLR 19/10 A3024 RMK AO2 SLP236 T01890100,KUTS,2019-03-27T00:53:00Z,30.75,-95.58,18.9,10.0,0,0,,10.0,30.239174,1023.6,,TRUE,TRUE,,,,,,,CLR,,,,,,,,VFR,,,,,,,,,,,,METAR,104.0
KSIY 270053Z AUTO 18016G23KT 10SM CLR 12/01 A2990 RMK AO2 SLP139 T01170006,KSIY,2019-03-27T00:53:00Z,41.77,-122.47,11.7,0.6,180,16,23,10.0,29.899607,1013.9,,TRUE,TRUE,,,,,,,CLR,,,,,,,,VFR,,,,,,,,,,,,METAR,807.0
KSMQ 270053Z AUTO 35004KT 10SM CLR 05/M18 A3033 RMK AO2 SLP271 T00501183,KSMQ,2019-03-27T00:53:00Z,40.62,-74.67,5.0,-18.3,350,4,,10.0,30.33071,1027.1,,TRUE,TRUE,,,,,,,CLR,,,,,,,,VFR,,,,,,,,,,,,METAR,30.0
KSLN 270053Z 17011KT 10SM CLR 14/07 A3019 RMK AO2 SLP224 T01440067,KSLN,2019-03-27T00:53:00Z,38.78,-97.65,14.4,6.7,170,11,,10.0,30.188976,1022.4,,,TRUE,,,,,,,CLR,,,,,,,,VFR,,,,,,,,,,,,METAR,385.0
KSNY 270053Z AUTO 16007KT 10SM CLR 12/02 A3000 RMK AO2 SLP159 T01170017,KSNY,2019-03-27T00:53:00Z,41.1,-102.98,11.7,1.7,160,7,,10.0,30.0,1015.9,,TRUE,TRUE,,,,,,,CLR,,,,,,,,VFR,,,,,,,,,,,,METAR,1307.0
KSFF 270053Z VRB06KT 10SM FEW065 12/M03 A2999 RMK AO2 SLP158 T01221028,KSFF,2019-03-27T00:53:00Z,47.68,-117.32,12.2,-2.8,0,6,,10.0,29.991142,1015.8,,,TRUE,,,,,,,FEW,6500,,,,,,,VFR,,,,,,,,,,,,METAR,609.0
KSTS 270053Z 23005KT 10SM SCT050 BKN100 16/06 A2992 RMK AO2 SLP126 T01610061,KSTS,2019-03-27T00:53:00Z,38.5,-122.82,16.1,6.1,230,5,,10.0,29.920275,1012.6,,,TRUE,,,,,,,SCT,5000,BKN,10000,,,,,VFR,,,,,,,,,,,,METAR,39.0
KUUU 270053Z AUTO 00000KT 10SM CLR M01/M06 A3031 RMK AO2 SLP263 T10061056,KUUU,2019-03-27T00:53:00Z,41.53,-71.28,-0.6,-5.6,0,0,,10.0,30.31004,1026.3,,TRUE,TRUE,,,,,,,CLR,,,,,,,,VFR,,,,,,,,,,,,METAR,51.0
KVEL 270053Z AUTO 00000KT 10SM CLR 12/M04 A3004 RMK AO2 SLP163 T01221039,KVEL,2019-03-27T00:53:00Z,40.45,-109.52,12.2,-3.9,0,0,,10.0,30.041338,1016.3,,TRUE,TRUE,,,,,,,CLR,,,,,,,,VFR,,,,,,,,,,,,METAR,1604.0
KVGT 270053Z 22009KT 10SM CLR 26/M11 A2988 RMK AO2 SLP120 T02611106,KVGT,2019-03-27T00:53:00Z,36.22,-115.2,26.1,-10.6,220,9,,10.0,29.878937,1012.0,,,TRUE,,,,,,,CLR,,,,,,,,VFR,,,,,,,,,,,,METAR,671.0
KVPC 270053Z AUTO 03005KT 10SM -RA OVC047 12/07 A3018 RMK AO2 RAB14E28B46 SLP216 P0000 T01220067,KVPC,2019-03-27T00:53:00Z,34.13,-84.85,12.2,6.7,30,5,,10.0,30.180119,1021.6,,TRUE,TRUE,,,,,,-RA,OVC,4700,,,,,,,VFR,,,,,,0.005,,,,,,METAR,222.0
KXNA 270053Z 08003KT 10SM CLR 16/02 A3030 RMK AO2 SLP257 T01560017,KXNA,2019-03-27T00:53:00Z,36.28,-94.3,15.6,1.7,80,3,,10.0,30.301182,1025.7,,,TRUE,,,,,,,CLR,,,,,,,,VFR,,,,,,,,,,,,METAR,392.0
KYKM 270053Z 19006KT 10SM CLR 14/M03 A2998 RMK AO2 SLP155 T01391028,KYKM,2019-03-27T00:53:00Z,46.57,-120.53,13.9,-2.8,190,6,,10.0,29.97933,1015.5,,,TRUE,,,,,,,CLR,,,,,,,,VFR,,,,,,,,,,,,METAR,324.0
KP68 270053Z AUTO 20010KT 15/M09 A2992 RMK AO1 SLP084 T01501089,KP68,2019-03-27T00:53:00Z,39.6,-116.0,15.0,-8.9,200,10,,,29.920275,1008.4,,TRUE,TRUE,,,,,,,,,,,,,,,,,,,,,,,,,,,METAR,1809.0
K4BM 270053Z AUTO 19006G14KT 10SM CLR 03/M13 A3031 RMK AO2,K4BM,2019-03-27T00:53:00Z,39.05,-105.52,3.0,-13.0,190,6,14,10.0,30.31004,,,TRUE,TRUE,,,,,,,CLR,,,,,,,,VFR,,,,,,,,,,,,METAR,3438.0
KBAF 270053Z 00000KT 10SM CLR 00/M15 A3032 RMK AO2 SLP273 T00001150,KBAF,2019-03-27T00:53:00Z,42.17,-72.72,0.0,-15.0,0,0,,10.0,30.318897,1027.3,,,TRUE,,,,,,,CLR,,,,,,,,VFR,,,,,,,,,,,,METAR,83.0
KOQT 270053Z AUTO VRB04KT 10SM CLR 11/M03 A3024 RMK AO2 SLP244 T01111033,KOQT,2019-03-27T00:53:00Z,36.02,-84.23,11.1,-3.3,0,4,,10.0,30.239174,1024.4,,TRUE,TRUE,,,,,,,CLR,,,,,,,,VFR,,,,,,,,,,,,METAR,277.0
KCQC 270053Z AUTO 17016KT 10SM CLR 13/03 A3023 RMK AO2 SLP197 T01330028,KCQC,2019-03-27T00:53:00Z,35.0,-105.67,13.3,2.8,170,16,,10.0,30.230314,1019.7,,TRUE,TRUE,,,,,,,CLR,,,,,,,,VFR,,,,,,,,,,,,METAR,2160.0
KMLT 270053Z AUTO 30006KT 10SM CLR M04/M16 A3028 RMK AO2 SLP267 T10441161,KMLT,2019-03-27T00:53:00Z,45.65,-68.7,-4.4,-16.1,300,6,,10.0,30.280512,1026.7,,TRUE,TRUE,,,,,,,CLR,,,,,,,,VFR,,,,,,,,,,,,METAR,123.0
KMSS 270053Z AUTO 00000KT 10SM CLR M05/M13 A3041 RMK AO2 SLP306 T10501128,KMSS,2019-03-27T00:53:00Z,44.93,-74.85,-5.0,-12.8,0,0,,10.0,30.410433,1030.6,,TRUE,TRUE,,,,,,,CLR,,,,,,,,VFR,,,,,,,,,,,,METAR,66.0
KMSP 270053Z 17009KT 10SM OVC033 09/01 A3020 RMK AO2 SLP234 T00890011,KMSP,2019-03-27T00:53:00Z,44.88,-93.23,8.9,1.1,170,9,,10.0,30.200787,1023.4,,,TRUE,,,,,,,OVC,3300,,,,,,,VFR,,,,,,,,,,,,METAR,265.0
KMSO 270053Z 21003KT 10SM FEW065 08/01 A2997 RMK AO2 SLP166 T00830006,KMSO,2019-03-27T00:53:00Z,46.92,-114.1,8.3,0.6,210,3,,10.0,29.970472,1016.6,,,TRUE,,,,,,,FEW,6500,,,,,,,VFR,,,,,,,,,,,,METAR,975.0
KMSN 270053Z 19007KT 10SM CLR 06/M10 A3032 RMK AO2 SLP276 T00561100,KMSN,2019-03-27T00:53:00Z,43.13,-89.35,5.6,-10.0,190,7,,10.0,30.318897,1027.6,,,TRUE,,,,,,,CLR,,,,,,,,VFR,,,,,,,,,,,,METAR,261.0
KMSL 270053Z AUTO 02006KT 10SM CLR 12/M08 A3026 RMK AO2 SLP246 T01221078,KMSL,2019-03-27T00:53:00Z,34.75,-87.6,12.2,-7.8,20,6,,10.0,30.259842,1024.6,,TRUE,TRUE,,,,,,,CLR,,,,,,,,VFR,,,,,,,,,,,,METAR,164.0
KMRB 270053Z 00000KT 10SM CLR 02/M09 A3033 RMK AO2 SLP276 T00221094,KMRB,2019-03-27T00:53:00Z,39.4,-77.98,2.2,-9.4,0,0,,10.0,30.33071,1027.6,,,TRUE,,,,,,,CLR,,,,,,,,VFR,,,,,,,,,,,,METAR,164.0
KLWV 270053Z AUTO 35004KT 10SM CLR 07/M03 A3037 RMK AO2 SLP285 T00671033,KLWV,2019-03-27T00:53:00Z,38.77,-87.6,6.7,-3.3,350,4,,10.0,30.369095,1028.5,,TRUE,TRUE,,,,,,,CLR,,,,,,,,VFR,,,,,,,,,,,,METAR,131.0
KLVK 270053Z 25006KT 10SM BKN085 OVC100 17/08 A2991 RMK AO2 RAB2357E20 SLP128 P0000 T01720078,KLVK,2019-03-27T00:53:00Z,37.7,-121.82,17.2,7.8,250,6,,10.0,29.911417,1012.8,,,TRUE,,,,,,,BKN,8500,OVC,10000,,,,,VFR,,,,,,0.005,,,,,,METAR,117.0
